{
  "type": "FeatureCollection",
  "features": [
    {
      "type": "Feature",
      "properties": {
        "norad_id": 66369,
        "name": "STARLINK-35795",
        "group": "last-30-days",
        "lat": -41.291261461822046,
        "lon": -172.4795429292433,
        "alt_km": 351.4412078144842,
        "timestamp": "2025-12-02T08:59:31.502310+00:00",
        "meta_object_name": "STARLINK-35795",
        "meta_object_id": "2025-254X",
        "meta_epoch": "2025-12-02T03:25:30.596736",
        "meta_mean_motion": 15.74259806,
        "meta_eccentricity": 0.0001214,
        "meta_inclination": 53.1569,
        "meta_ra_of_asc_node": 327.4845,
        "meta_arg_of_pericenter": 93.8303,
        "meta_mean_anomaly": 266.2856,
        "meta_ephemeris_type": 0,
        "meta_classification_type": "U",
        "meta_norad_cat_id": 66369,
        "meta_element_set_no": 999,
        "meta_rev_at_epoch": 401,
        "meta_bstar": 0.0017629,
        "meta_mean_motion_dot": 0.00266703,
        "meta_mean_motion_ddot": 0,
        "tle_line1": "1 66369U 25254X   25336.14271524  .00266703  00000+0  17629-2 0  9993",
        "tle_line2": "2 66369  53.1569 327.4845 0001214  93.8303 266.2856 15.74259806  4015"
      },
      "geometry": {
        "type": "Point",
        "coordinates": [
          -172.4795429292433,
          -41.291261461822046
        ]
      }
    },
    {
      "type": "Feature",
      "properties": {
        "norad_id": 66370,
        "name": "STARLINK-35824",
        "group": "last-30-days",
        "lat": -43.528426701618415,
        "lon": -168.2559497325496,
        "alt_km": 351.5604663165441,
        "timestamp": "2025-12-02T08:59:31.502321+00:00",
        "meta_object_name": "STARLINK-35824",
        "meta_object_id": "2025-254Y",
        "meta_epoch": "2025-12-02T03:24:32.097888",
        "meta_mean_motion": 15.74273613,
        "meta_eccentricity": 0.0001246,
        "meta_inclination": 53.1569,
        "meta_ra_of_asc_node": 327.4803,
        "meta_arg_of_pericenter": 94.3401,
        "meta_mean_anomaly": 265.7761,
        "meta_ephemeris_type": 0,
        "meta_classification_type": "U",
        "meta_norad_cat_id": 66370,
        "meta_element_set_no": 999,
        "meta_rev_at_epoch": 401,
        "meta_bstar": 0.0016386,
        "meta_mean_motion_dot": 0.0024743,
        "meta_mean_motion_ddot": 0,
        "tle_line1": "1 66370U 25254Y   25336.14203817  .00247430  00000+0  16386-2 0  9990",
        "tle_line2": "2 66370  53.1569 327.4803 0001246  94.3401 265.7761 15.74273613  4012"
      },
      "geometry": {
        "type": "Point",
        "coordinates": [
          -168.2559497325496,
          -43.528426701618415
        ]
      }
    },
    {
      "type": "Feature",
      "properties": {
        "norad_id": 66371,
        "name": "STARLINK-35804",
        "group": "last-30-days",
        "lat": -45.59586685497301,
        "lon": -163.72438494205556,
        "alt_km": 351.5570427170296,
        "timestamp": "2025-12-02T08:59:31.502331+00:00",
        "meta_object_name": "STARLINK-35804",
        "meta_object_id": "2025-254Z",
        "meta_epoch": "2025-12-02T03:23:33.567072",
        "meta_mean_motion": 15.74270041,
        "meta_eccentricity": 0.0001522,
        "meta_inclination": 53.1567,
        "meta_ra_of_asc_node": 327.4752,
        "meta_arg_of_pericenter": 117.5841,
        "meta_mean_anomaly": 242.5333,
        "meta_ephemeris_type": 0,
        "meta_classification_type": "U",
        "meta_norad_cat_id": 66371,
        "meta_element_set_no": 999,
        "meta_rev_at_epoch": 401,
        "meta_bstar": 0.0015809,
        "meta_mean_motion_dot": 0.00238403,
        "meta_mean_motion_ddot": 0,
        "tle_line1": "1 66371U 25254Z   25336.14136073  .00238403  00000+0  15809-2 0  9999",
        "tle_line2": "2 66371  53.1567 327.4752 0001522 117.5841 242.5333 15.74270041  4017"
      },
      "geometry": {
        "type": "Point",
        "coordinates": [
          -163.72438494205556,
          -45.59586685497301
        ]
      }
    },
    {
      "type": "Feature",
      "properties": {
        "norad_id": 66372,
        "name": "STARLINK-35821",
        "group": "last-30-days",
        "lat": -44.58100980380647,
        "lon": -166.03783127094476,
        "alt_km": 351.68065563309483,
        "timestamp": "2025-12-02T08:59:31.502343+00:00",
        "meta_object_name": "STARLINK-35821",
        "meta_object_id": "2025-254AA",
        "meta_epoch": "2025-12-02T03:24:02.847168",
        "meta_mean_motion": 15.74265847,
        "meta_eccentricity": 0.0001389,
        "meta_inclination": 53.1569,
        "meta_ra_of_asc_node": 327.4786,
        "meta_arg_of_pericenter": 98.8922,
        "meta_mean_anomaly": 261.2255,
        "meta_ephemeris_type": 0,
        "meta_classification_type": "U",
        "meta_norad_cat_id": 66372,
        "meta_element_set_no": 999,
        "meta_rev_at_epoch": 401,
        "meta_bstar": 0.0015974,
        "meta_mean_motion_dot": 0.00240921,
        "meta_mean_motion_ddot": 0,
        "tle_line1": "1 66372U 25254AA  25336.14169962  .00240921  00000+0  15974-2 0  9994",
        "tle_line2": "2 66372  53.1569 327.4786 0001389  98.8922 261.2255 15.74265847  4018"
      },
      "geometry": {
        "type": "Point",
        "coordinates": [
          -166.03783127094476,
          -44.58100980380647
        ]
      }
    },
    {
      "type": "Feature",
      "properties": {
        "norad_id": 66373,
        "name": "STARLINK-35809",
        "group": "last-30-days",
        "lat": -46.542223157631014,
        "lon": -161.3789824240499,
        "alt_km": 351.72973640097825,
        "timestamp": "2025-12-02T08:59:31.502354+00:00",
        "meta_object_name": "STARLINK-35809",
        "meta_object_id": "2025-254AB",
        "meta_epoch": "2025-12-02T03:23:04.387200",
        "meta_mean_motion": 15.74247538,
        "meta_eccentricity": 0.0001567,
        "meta_inclination": 53.1568,
        "meta_ra_of_asc_node": 327.4728,
        "meta_arg_of_pericenter": 119.8507,
        "meta_mean_anomaly": 240.2669,
        "meta_ephemeris_type": 0,
        "meta_classification_type": "U",
        "meta_norad_cat_id": 66373,
        "meta_element_set_no": 999,
        "meta_rev_at_epoch": 401,
        "meta_bstar": 0.0012653,
        "meta_mean_motion_dot": 0.00189387,
        "meta_mean_motion_ddot": 0,
        "tle_line1": "1 66373U 25254AB  25336.14102300  .00189387  00000+0  12653-2 0  9997",
        "tle_line2": "2 66373  53.1568 327.4728 0001567 119.8507 240.2669 15.74247538  4018"
      },
      "geometry": {
        "type": "Point",
        "coordinates": [
          -161.3789824240499,
          -46.542223157631014
        ]
      }
    },
    {
      "type": "Feature",
      "properties": {
        "norad_id": 66374,
        "name": "STARLINK-35831",
        "group": "last-30-days",
        "lat": -47.44171358998458,
        "lon": -158.94346448286544,
        "alt_km": 351.95754392469007,
        "timestamp": "2025-12-02T08:59:31.502364+00:00",
        "meta_object_name": "STARLINK-35831",
        "meta_object_id": "2025-254AC",
        "meta_epoch": "2025-12-02T03:22:35.304096",
        "meta_mean_motion": 15.74242498,
        "meta_eccentricity": 0.0001259,
        "meta_inclination": 53.1568,
        "meta_ra_of_asc_node": 327.4709,
        "meta_arg_of_pericenter": 89.2043,
        "meta_mean_anomaly": 270.9121,
        "meta_ephemeris_type": 0,
        "meta_classification_type": "U",
        "meta_norad_cat_id": 66374,
        "meta_element_set_no": 999,
        "meta_rev_at_epoch": 401,
        "meta_bstar": 0.001272,
        "meta_mean_motion_dot": 0.00190365,
        "meta_mean_motion_ddot": 0,
        "tle_line1": "1 66374U 25254AC  25336.14068639  .00190365  00000+0  12720-2 0  9997",
        "tle_line2": "2 66374  53.1568 327.4709 0001259  89.2043 270.9121 15.74242498  4014"
      },
      "geometry": {
        "type": "Point",
        "coordinates": [
          -158.94346448286544,
          -47.44171358998458
        ]
      }
    },
    {
      "type": "Feature",
      "properties": {
        "norad_id": 66375,
        "name": "STARLINK-35826",
        "group": "last-30-days",
        "lat": -48.36330495830143,
        "lon": -156.1879728220161,
        "alt_km": 351.16219404566164,
        "timestamp": "2025-12-02T08:59:31.502374+00:00",
        "meta_object_name": "STARLINK-35826",
        "meta_object_id": "2025-254AD",
        "meta_epoch": "2025-12-02T01:50:40.406784",
        "meta_mean_motion": 15.74294515,
        "meta_eccentricity": 0.0001435,
        "meta_inclination": 53.1565,
        "meta_ra_of_asc_node": 327.7833,
        "meta_arg_of_pericenter": 135.3868,
        "meta_mean_anomaly": 224.7267,
        "meta_ephemeris_type": 0,
        "meta_classification_type": "U",
        "meta_norad_cat_id": 66375,
        "meta_element_set_no": 999,
        "meta_rev_at_epoch": 400,
        "meta_bstar": 0.0019909,
        "meta_mean_motion_dot": 0.00303057,
        "meta_mean_motion_ddot": 0,
        "tle_line1": "1 66375U 25254AD  25336.07685656  .00303057  00000+0  19909-2 0  9994",
        "tle_line2": "2 66375  53.1565 327.7833 0001435 135.3868 224.7267 15.74294515  4001"
      },
      "geometry": {
        "type": "Point",
        "coordinates": [
          -156.1879728220161,
          -48.36330495830143
        ]
      }
    }
  ]
}